{"type": "FeatureCollection", "features": [{"type": "Feature", "properties": {"id": "SC-P3", "name": "FIR PUNTA ARENAS Isla Dawson", "kind": "P"}, "geometry": {"type": "Polygon", "coordinates": [[[-70.51666666666667, -53.766666666666666], [-70.325, -53.766666666666666], [-70.325, -53.916666666666664], [-70.51666666666667, -53.916666666666664], [-70.51666666666667, -53.766666666666666]]]}}, {"type": "Feature", "properties": {"id": "SC-P9", "name": "FIR SANTIAGO Autorizaciones excepcionales para ", "kind": "P", "radius_m": 2778.0}, "geometry": {"type": "Point", "coordinates": [-73.55925277777777, -37.33166666666667]}}, {"type": "Feature", "properties": {"id": "SC-P10", "name": "FIR ANTOFAGASTA centrado en VOR/DME ARI 18 22 10 S 70 20 47", "kind": "P", "radius_m": 74080.0}, "geometry": {"type": "Point", "coordinates": [-70.0, -18.952777777777776]}}, {"type": "Feature", "properties": {"id": "SC-P23", "name": "FIR SANTIAGO Talcahuano H24", "kind": "P"}, "geometry": {"type": "Polygon", "coordinates": [[[-73.025, -36.55833333333333], [-73.04666666666667, -36.69166666666666], [-73.06666666666666, -36.733333333333334], [-73.21666666666667, -36.733333333333334], [-73.19166666666668, -36.63333333333333], [-73.15, -36.55], [-73.025, -36.55833333333333]]]}}, {"type": "Feature", "properties": {"id": "SC-P26", "name": "FIR SANTIAGO Santiago (Ex congreso Nacional)", "kind": "P", "radius_m": 277.8}, "geometry": {"type": "Point", "coordinates": [-70.65333333333334, -33.43833333333333]}}, {"type": "Feature", "properties": {"id": "SC-P28", "name": "FIR SANTIAGO Palacio La Moneda", "kind": "P"}, "geometry": {"type": "Polygon", "coordinates": [[[-70.65472222222223, -33.441111111111105], [-70.6538888888889, -33.441111111111105], [-70.65305555555557, -33.44416666666666], [-70.65416666666667, -33.44444444444444], [-70.65472222222223, -33.441111111111105]]]}}, {"type": "Feature", "properties": {"id": "SC-P29", "name": "FIR SANTIAGO Valparaíso (Congreso Nacional)", "kind": "P", "radius_m": 277.8}, "geometry": {"type": "Point", "coordinates": [-71.60527777777777, -33.04805555555556]}}, {"type": "Feature", "properties": {"id": "SC-P30", "name": "FIR SANTIAGO 1200 FT ALT IFR Palacio Presidencial Viña del Mar GND/MSL", "kind": "P", "radius_m": 500.0}, "geometry": {"type": "Point", "coordinates": [-71.56416666666667, -33.02055555555555]}}, {"type": "Feature", "properties": {"id": "SC-P44", "name": "FIR SANTIAGO La Reina", "kind": "P", "radius_m": 500.0}, "geometry": {"type": "Point", "coordinates": [-70.52444444444444, -33.42861111111111]}}, {"type": "Feature", "properties": {"id": "SC-P86", "name": "FIR PUERTO MONTT Coyhaique", "kind": "P", "radius_m": 20372.0}, "geometry": {"type": "Point", "coordinates": [-71.08333333333333, -32.416666666666664]}}, {"type": "Feature", "properties": {"id": "SC-R2", "name": "FIR SANTIAGO Actividad anunciada por NOTAM/", "kind": "R"}, "geometry": {"type": "Polygon", "coordinates": [[[-70.73333333333333, -34.2], [-70.58333333333333, -34.233333333333334], [-70.65, -34.5], [-70.86666666666666, -34.5], [-70.9, -34.06666666666667], [-70.775, -34.06666666666667], [-71.0, -34.5], [-71.25, -34.5], [-71.33333333333333, -34.266666666666666], [-70.68555555555555, -33.11361111111111], [-70.67944444444444, -33.10916666666667], [-70.63916666666667, -33.158055555555556], [-70.64361111111111, -33.16222222222222], [-70.73333333333333, -34.2]]]}}, {"type": "Feature", "properties": {"id": "SC-R8", "name": "FIR SANTIAGO VRNO MON – SUN/HOL 1100- FCCV", "kind": "R"}, "geometry": {"type": "Polygon", "coordinates": [[[-70.7, -33.75], [-70.5, -33.75], [-70.5, -33.916666666666664], [-70.7, -33.916666666666664], [-70.7, -33.75]]]}}, {"type": "Feature", "properties": {"id": "SC-R16", "name": "FIR ANTOFAGASTA MIL Instruction Flights. (Antofagasta Oeste) Solicitud de ingreso:", "kind": "R"}, "geometry": {"type": "Polygon", "coordinates": [[[-72.84388888888888, -20.5], [-71.54777777777778, -20.5], [-70.83305555555555, -21.141666666666666], [-70.93333333333334, -23.44472222222222], [-71.16666666666667, -25.5], [-72.0, -25.5], [-72.84388888888888, -20.5]]]}}, {"type": "Feature", "properties": {"id": "SC-R17", "name": "FIR PUNTA ARENAS Sector Seno Otway H24", "kind": "R"}, "geometry": {"type": "Polygon", "coordinates": [[[-71.25, -52.958333333333336], [-71.20833333333334, -52.958333333333336], [-71.20833333333334, -53.0], [-71.25, -53.0], [-71.25, -52.958333333333336]]]}}, {"type": "Feature", "properties": {"id": "SC-R18", "name": "FIR PUNTA ARENAS Sector Isla Magdalena H24", "kind": "R", "radius_m": 1852.0}, "geometry": {"type": "Point", "coordinates": [-70.56666666666666, -52.916666666666664]}}, {"type": "Feature", "properties": {"id": "SC-R19", "name": "FIR PUNTA ARENAS Sector Isla Marta H24", "kind": "R", "radius_m": 1852.0}, "geometry": {"type": "Point", "coordinates": [-70.56666666666666, -52.85]}}, {"type": "Feature", "properties": {"id": "SC-R21", "name": "FIR SANTIAGO Instrucción FLT MIL Escuela de Aviación Weste MIL FLT Instructions", "kind": "R"}, "geometry": {"type": "Polygon", "coordinates": [[[-70.7, -33.5], [-70.66388888888889, -33.5], [-70.71666666666667, -33.61666666666667], [-70.7, -33.5]]]}}, {"type": "Feature", "properties": {"id": "SC-R22", "name": "FIR ANTOFAGASTA Vuelos de Entrenamiento FACH /", "kind": "R"}, "geometry": {"type": "Polygon", "coordinates": [[[-69.93333333333334, -21.683333333333334], [-69.25, -22.283333333333335], [-69.31666666666666, -22.55], [-70.25, -22.933333333333334], [-69.93333333333334, -21.683333333333334]]]}}, {"type": "Feature", "properties": {"id": "SC-R25", "name": "FIR ANTOFAGASTA HJ Antofagasta Este Vuelos de Entrenamiento FACH /", "kind": "R", "radius_m": 46300.0}, "geometry": {"type": "Point", "coordinates": [-70.25, -23.183333333333334]}}, {"type": "Feature", "properties": {"id": "SC-R27", "name": "FIR SANTIAGO Instruction Flights Escuela de Aviación Escuela de Aviación.", "kind": "R"}, "geometry": {"type": "Polygon", "coordinates": [[[-70.66388888888889, -33.5], [-70.63333333333334, -33.5], [-70.62083333333332, -33.541666666666664], [-70.60416666666666, -33.55416666666667], [-70.60833333333333, -33.61666666666667], [-70.7, -33.645833333333336], [-70.71666666666667, -33.61666666666667], [-70.66388888888889, -33.5]]]}}, {"type": "Feature", "properties": {"id": "SC-R32", "name": "FIR ANTOFAGASTA Air exercises and air – air firing Area delimitada por / Area bounded by: Activada por NOTAM/", "kind": "R"}, "geometry": {"type": "Polygon", "coordinates": [[[-70.70083333333334, -19.111944444444447], [-70.81666666666666, -20.05], [-71.29944444444445, -19.447222222222223], [-70.70083333333334, -19.111944444444447]]]}}, {"type": "Feature", "properties": {"id": "SC-R35", "name": "FIR SANTIAGO Vuelos de Entrenamiento Armada Quillota Navy training flights", "kind": "R", "radius_m": 1852.0}, "geometry": {"type": "Point", "coordinates": [-71.05, -32.75]}}, {"type": "Feature", "properties": {"id": "SC-R52", "name": "FIR ANTOFAGASTA Durante los ejercicios se deberá", "kind": "R"}, "geometry": {"type": "Polygon", "coordinates": [[[-70.4, -23.283333333333335], [-70.05222222222221, -23.291666666666668], [-70.4, -23.474999999999998], [-70.05222222222221, -23.474999999999998], [-70.4, -23.283333333333335]]]}}, {"type": "Feature", "properties": {"id": "SC-R53", "name": "FIR ANTOFAGASTA Activación zona en coordinación con", "kind": "R"}, "geometry": {"type": "Polygon", "coordinates": [[[-70.21666666666667, -20.633333333333333], [-70.03333333333333, -20.633333333333333], [-70.03333333333333, -20.833333333333332], [-70.25, -20.833333333333332], [-70.20833333333334, -20.583333333333332], [-70.03333333333333, -20.583333333333332], [-70.03333333333333, -20.633333333333333], [-70.21666666666667, -20.633333333333333], [-70.68333333333334, -33.93333333333333], [-70.63333333333334, -33.916666666666664], [-70.61666666666666, -34.13333333333333], [-70.7, -34.13333333333333], [-70.21666666666667, -20.633333333333333]]]}}, {"type": "Feature", "properties": {"id": "SC-R60", "name": "FIR SANTIAGO IVNO MON-SUN/HOL Paine 1200 - FCCV", "kind": "R"}, "geometry": {"type": "Polygon", "coordinates": [[[-70.81666666666666, -33.75], [-70.78333333333333, -33.78333333333333], [-70.78333333333333, -33.916666666666664], [-70.96666666666667, -33.916666666666664], [-70.96666666666667, -33.81666666666667], [-70.81666666666666, -33.75]]]}}, {"type": "Feature", "properties": {"id": "SC-R61", "name": "FIR SANTIAGO IVNO 1200-FCCV VRNO 1100-FCCV", "kind": "R"}, "geometry": {"type": "Polygon", "coordinates": [[[-70.65, -33.675], [-70.5, -33.75], [-70.5, -33.65], [-70.65, -33.75], [-70.65, -33.675]]]}}, {"type": "Feature", "properties": {"id": "SC-R62", "name": "FIR SANTIAGO IVNO 1200-FCCV VRNO 1100-FCCV", "kind": "R"}, "geometry": {"type": "Polygon", "coordinates": [[[-70.7, -33.68333333333333], [-70.65, -33.75], [-70.65, -33.675], [-70.7, -33.75], [-70.7, -33.68333333333333]]]}}, {"type": "Feature", "properties": {"id": "SC-R67", "name": "FIR SANTIAGO Vuelos de Entrenamiento Armada", "kind": "R"}, "geometry": {"type": "Polygon", "coordinates": [[[-71.45833333333334, -33.1], [-71.28333333333333, -33.175], [-71.28333333333333, -33.358333333333334], [-71.66111111111111, -33.358333333333334], [-71.67500000000001, -33.208333333333336], [-71.45833333333334, -33.1]]]}}, {"type": "Feature", "properties": {"id": "SC-R68", "name": "FIR SANTIAGO María Pinto", "kind": "R"}, "geometry": {"type": "Polygon", "coordinates": [[[-71.21666666666667, -33.45], [-71.0, -33.45], [-71.21666666666667, -33.53333333333333], [-71.0, -33.53333333333333], [-71.21666666666667, -33.45]]]}}, {"type": "Feature", "properties": {"id": "SC-R69", "name": "FIR ANTOFAGASTA NOTAM", "kind": "R"}, "geometry": {"type": "Polygon", "coordinates": [[[-71.5, -22.5], [-71.0, -22.5], [-71.0, -23.416666666666668], [-71.5, -23.383333333333333], [-71.5, -22.5]]]}}, {"type": "Feature", "properties": {"id": "SC-R71", "name": "FIR SANTIAGO HJ Llano de San Rafael Activada por NOTAM/", "kind": "R"}, "geometry": {"type": "Polygon", "coordinates": [[[-71.54944444444445, -34.14333333333333], [-71.51055555555556, -34.14388888888889], [-71.5125, -34.21083333333333], [-71.55138888888888, -34.21], [-71.54944444444445, -34.14333333333333]]]}}, {"type": "Feature", "properties": {"id": "SC-R72", "name": "FIR ANTOFAGASTA Sector Punta Gruesa", "kind": "R"}, "geometry": {"type": "Polygon", "coordinates": [[[-70.15202500000001, -20.324919444444443], [-70.19874722222222, -20.385738888888888], [-70.15758055555555, -20.385738888888888], [-70.15202500000001, -20.324919444444443]]]}}, {"type": "Feature", "properties": {"id": "SC-R73", "name": "FIR SANTIAGO Restricción vuelo RPAS Sector Palacio Pereira –.", "kind": "R", "radius_m": 555.6}, "geometry": {"type": "Point", "coordinates": [-70.92361111111111, -33.64222222222222]}}, {"type": "Feature", "properties": {"id": "SC-D11", "name": "FIR SANTIAGO-Pirque Vuelos de Instrucción Club", "kind": "D"}, "geometry": {"type": "Polygon", "coordinates": [[[-70.65, -33.666666666666664], [-70.5, -33.61666666666667], [-70.5, -33.75], [-70.65, -33.75], [-70.65, -33.666666666666664]]]}}, {"type": "Feature", "properties": {"id": "SC-D13", "name": "FIR SANTIAGO – AD Cuatro Diablos Paracaidismo Instrucciones Santiago RDR", "kind": "D", "radius_m": 1852.0}, "geometry": {"type": "Point", "coordinates": [-70.7, -33.68333333333333]}}, {"type": "Feature", "properties": {"id": "SC-D22", "name": "Zone: Santiago Information 122.4 MHz ALTN", "kind": "D", "radius_m": 370.40000000000003}, "geometry": {"type": "Point", "coordinates": [-71.05, -52.75833333333333]}}]}